CCSDS_OMM_VERS,COMMENT,CREATION_DATE,ORIGINATOR,OBJECT_NAME,OBJECT_ID,CENTER_NAME,REF_FRAME,TIME_SYSTEM,MEAN_ELEMENT_THEORY,EPOCH,MEAN_MOTION,ECCENTRICITY,INCLINATION,RA_OF_ASC_NODE,ARG_OF_PERICENTER,MEAN_ANOMALY,EPHEMERIS_TYPE,CLASSIFICATION_TYPE,NORAD_CAT_ID,ELEMENT_SET_NO,REV_AT_EPOCH,BSTAR,MEAN_MOTION_DOT,MEAN_MOTION_DDOT,SEMIMAJOR_AXIS,PERIOD,APOAPSIS,PERIAPSIS,OBJECT_TYPE,RCS_SIZE,COUNTRY_CODE,LAUNCH_DATE,SITE,DECAY_DATE,FILE,GP_ID,TLE_LINE0,TLE_LINE1,TLE_LINE2
"2.0","GENERATED VIA SPACE-TRACK.ORG API","2019-09-24T04:16:00","18 SPCS","STARLINK-44","2019-029AC","EARTH","TEME","UTC","SGP4","2019-09-23T20:47:04.953984","15.05474299","0.00012800","53.0018","341.0613","126.6948","233.4158","0","U","44261","999","1771","0.00006962600000","0.00000733","0.0000000000000","6928.187","95.650","550.938","549.165","PAYLOAD","LARGE","US","2019-05-24","AFETR","","2615560","139884935","0 STARLINK-44","1 44261U 19029AC  19266.86602956 +.00000733 +00000-0 +69626-4 0  9990","2 44261 053.0018 341.0613 0001280 126.6948 233.4158 15.05474299017719"
"2.0","GENERATED VIA SPACE-TRACK.ORG API","2019-09-24T06:40:15","18 SPCS","AEOLUS","2018-066A","EARTH","TEME","UTC","SGP4","2019-09-24T02:31:06.527424","15.86810847","0.00052740","96.7229","272.4966","77.8102","322.8126","0","U","43600","999","6297","0.00007060000000","0.00017849","0.0000000000000","6689.367","90.748","314.760","307.704","PAYLOAD","LARGE","ESA","2018-08-22","FRGUI","","2615756","139889664","0 AEOLUS","1 43600U 18066A   19267.10493666  .00017849  00000-0  70600-4 0  9990","2 43600  96.7229 272.4966 0005274  77.8102 322.8126 15.86810847 62975"
"2.0","GENERATED VIA SPACE-TRACK.ORG API","2019-09-24T22:40:15","18 SPCS","AEOLUS","2018-066A","EARTH","TEME","UTC","SGP4","2019-09-24T15:02:30.082848","15.86798458","0.00033200","96.7189","273.0163","67.3429","71.9402","0","U","43600","999","6305","0.00004194900000","0.00010528","0.0000000000000","6689.402","90.748","313.488","309.046","PAYLOAD","LARGE","ESA","2018-08-22","FRGUI","","2616211","139918427","0 AEOLUS","1 43600U 18066A   19267.62673707  .00010528  00000-0  41949-4 0  9994","2 43600  96.7189 273.0163 0003320  67.3429  71.9402 15.86798458 63054"
"2.0","GENERATED VIA SPACE-TRACK.ORG API","2019-09-24T22:20:16","18 SPCS","STARLINK-44","2019-029AC","EARTH","TEME","UTC","SGP4","2019-09-24T15:54:15.266016","15.05476011","0.00012420","53.0016","337.4856","127.3529","232.7572","0","U","44261","999","1877","0.00007585900000","0.00000823","0.0000000000000","6928.181","95.650","550.907","549.186","PAYLOAD","LARGE","US","2019-05-24","AFETR","","2616096","139915647","0 STARLINK-44","1 44261U 19029AC  19267.66267669  .00000823  00000-0  75859-4 0  9992","2 44261  53.0016 337.4856 0001242 127.3529 232.7572 15.05476011 18779"
"2.0","GENERATED VIA SPACE-TRACK.ORG API","2019-09-25T06:40:17","18 SPCS","AEOLUS","2018-066A","EARTH","TEME","UTC","SGP4","2019-09-25T01:11:12.039360","15.86790424","0.00043010","96.7167","273.4318","64.7397","327.5604","0","U","43600","999","6312","0.00002245500000","0.00005568","0.0000000000000","6689.425","90.749","314.167","308.412","PAYLOAD","LARGE","ESA","2018-08-22","FRGUI","","2616421","139959250","0 AEOLUS","1 43600U 18066A   19268.04944490  .00005568  00000-0  22455-4 0  9990","2 43600  96.7167 273.4318 0004301  64.7397 327.5604 15.86790424 63128"
"2.0","GENERATED VIA SPACE-TRACK.ORG API","2019-09-25T14:50:20","18 SPCS","AEOLUS","2018-066A","EARTH","TEME","UTC","SGP4","2019-09-25T10:40:39.258912","15.86793040","0.00042630","96.7229","273.8247","61.9942","67.7642","0","U","43600","999","6318","0.00001930600000","0.00004768","0.0000000000000","6689.417","90.749","314.134","308.431","PAYLOAD","LARGE","ESA","2018-08-22","FRGUI","","2616787","139967739","0 AEOLUS","1 43600U 18066A   19268.44489883  .00004768  00000-0  19306-4 0  9996","2 43600  96.7229 273.8247 0004263  61.9942  67.7642 15.86793040 63182"
"2.0","GENERATED VIA SPACE-TRACK.ORG API","2019-09-25T22:50:14","18 SPCS","AEOLUS","2018-066A","EARTH","TEME","UTC","SGP4","2019-09-25T13:48:10.647936","15.86803238","0.00044910","96.7205","273.9515","69.0051","84.1743","0","U","43600","999","6320","0.00002725800000","0.00006794","0.0000000000000","6689.389","90.748","314.258","308.249","PAYLOAD","LARGE","ESA","2018-08-22","FRGUI","","2617052","140011669","0 AEOLUS","1 43600U 18066A   19268.57512324  .00006794  00000-0  27258-4 0  9993","2 43600  96.7205 273.9515 0004491  69.0051  84.1743 15.86803238 63207"
"2.0","GENERATED VIA SPACE-TRACK.ORG API","2019-09-26T03:59:35","18 SPCS","STARLINK-44","2019-029AC","EARTH","TEME","UTC","SGP4","2019-09-25T15:48:13.016736","15.05478950","0.00011550","53.0016","333.0161","127.9240","232.1852","0","U","44261","999","1798","0.00009244000000","0.00001064","0.0000000000000","6928.172","95.650","550.838","549.237","PAYLOAD","LARGE","US","2019-05-24","AFETR","","2617075","140030536","0 STARLINK-44","1 44261U 19029AC  19268.65848399 +.00001064 +00000-0 +92440-4 0  9990","2 44261 053.0016 333.0161 0001155 127.9240 232.1852 15.05478950017980"
"2.0","GENERATED VIA SPACE-TRACK.ORG API","2019-09-26T03:59:35","18 SPCS","AEOLUS","2018-066A","EARTH","TEME","UTC","SGP4","2019-09-25T22:29:28.425984","15.86820410","0.00044830","96.7170","274.3080","56.4665","3.3128","0","U","43600","999","6326","0.00003896400000","0.00009782","0.0000000000000","6689.340","90.747","314.204","308.206","PAYLOAD","LARGE","ESA","2018-08-22","FRGUI","","2617075","140029990","0 AEOLUS","1 43600U 18066A   19268.93713456 +.00009782 +00000-0 +38964-4 0  9998","2 43600 096.7170 274.3080 0004483 056.4665 003.3128 15.86820410063269"
"2.0","GENERATED VIA SPACE-TRACK.ORG API","2019-09-26T06:40:17","18 SPCS","AEOLUS","2018-066A","EARTH","TEME","UTC","SGP4","2019-09-25T23:58:58.414080","15.86829163","0.00043150","96.7173","274.3681","54.9727","359.6372","0","U","43600","999","6327","0.00004540200000","0.00011428","0.0000000000000","6689.316","90.747","314.067","308.294","PAYLOAD","LARGE","ESA","2018-08-22","FRGUI","","2617300","140054884","0 AEOLUS","1 43600U 18066A   19268.99928720  .00011428  00000-0  45402-4 0  9991","2 43600  96.7173 274.3681 0004315  54.9727 359.6372 15.86829163 63278"
"2.0","GENERATED VIA SPACE-TRACK.ORG API","2019-09-26T11:20:16","18 SPCS","STARLINK-44","2019-029AC","EARTH","TEME","UTC","SGP4","2019-09-26T04:32:59.775072","15.05480944","0.00011100","53.0015","330.6322","128.5476","231.5611","0","U","44261","999","1900","0.00010164000000","0.00001198","0.0000000000000","6928.166","95.650","550.800","549.262","PAYLOAD","LARGE","US","2019-05-24","AFETR","","2617355","140055584","0 STARLINK-44","1 44261U 19029AC  19269.18958073  .00001198  00000-0  10164-3 0  9990","2 44261  53.0015 330.6322 0001110 128.5476 231.5611 15.05480944 19007"
"2.0","GENERATED VIA SPACE-TRACK.ORG API","2019-09-26T11:40:15","18 SPCS","AEOLUS","2018-066A","EARTH","TEME","UTC","SGP4","2019-09-26T06:20:18.017952","15.86847694","0.00047690","96.7171","274.6305","70.6308","55.7348","0","U","43600","999","6331","0.00005856800000","0.00014802","0.0000000000000","6689.264","90.745","314.319","307.939","PAYLOAD","LARGE","ESA","2018-08-22","FRGUI","","2617481","140058565","0 AEOLUS","1 43600U 18066A   19269.26409743  .00014802  00000-0  58568-4 0  9997","2 43600  96.7171 274.6305 0004769  70.6308  55.7348 15.86847694 63316"
"2.0","GENERATED VIA SPACE-TRACK.ORG API","2019-09-26T21:10:12","18 SPCS","AEOLUS","2018-066A","EARTH","TEME","UTC","SGP4","2019-09-26T13:52:28.218432","15.86874856","0.00044100","96.7208","274.9355","75.8557","43.1213","0","U","43600","999","6336","0.00008632000000","0.00021925","0.0000000000000","6689.187","90.744","314.002","308.102","PAYLOAD","LARGE","ESA","2018-08-22","FRGUI","","2617691","140082483","0 AEOLUS","1 43600U 18066A   19269.57810438  .00021925  00000-0  86320-4 0  9999","2 43600  96.7208 274.9355 0004410  75.8557  43.1213 15.86874856 63368"
"2.0","GENERATED VIA SPACE-TRACK.ORG API","2019-09-26T20:30:14","18 SPCS","STARLINK-44","2019-029AC","EARTH","TEME","UTC","SGP4","2019-09-26T15:42:09.652032","15.05514637","0.00011870","53.0014","328.5465","124.1034","236.0067","0","U","44261","999","1907","0.00010326000000","0.00001223","0.0000000000000","6928.063","95.648","550.750","549.106","PAYLOAD","LARGE","US","2019-05-24","AFETR","","2617568","140079438","0 STARLINK-44","1 44261U 19029AC  19269.65427838  .00001223  00000-0  10326-3 0  9991","2 44261  53.0014 328.5465 0001187 124.1034 236.0067 15.05514637 19075"
"2.0","GENERATED VIA SPACE-TRACK.ORG API","2019-09-26T22:50:13","18 SPCS","AEOLUS","2018-066A","EARTH","TEME","UTC","SGP4","2019-09-26T16:39:05.186592","15.86865895","0.00052650","96.7182","275.0501","79.0019","340.4878","0","U","43600","999","6338","0.00007047200000","0.00017864","0.0000000000000","6689.212","90.744","314.599","307.556","PAYLOAD","LARGE","ESA","2018-08-22","FRGUI","","2617714","140082882","0 AEOLUS","1 43600U 18066A   19269.69381003  .00017864  00000-0  70472-4 0  9991","2 43600  96.7182 275.0501 0005265  79.0019 340.4878 15.86865895 63387"
"2.0","GENERATED VIA SPACE-TRACK.ORG API","2019-09-27T05:20:12","18 SPCS","AEOLUS","2018-066A","EARTH","TEME","UTC","SGP4","2019-09-27T04:46:18.188832","15.86753034","0.00049810","96.7170","275.5441","95.0456","327.2218","0","U","43600","999","6346","0.00004354100000","0.00010915","0.0000000000000","6689.530","90.751","314.727","308.063","PAYLOAD","LARGE","ESA","2018-08-22","FRGUI","","2617752","140121098","0 AEOLUS","1 43600U 18066A   19270.19882163  .00010915  00000-0  43541-4 0  9998","2 43600  96.7170 275.5441 0004981  95.0456 327.2218 15.86753034 63460"
